{
  "type": "FeatureCollection",
  "features": [
    {
      "type": "Feature",
      "properties": {
        "norad_id": 41556,
        "name": "ZIYUAN 3-2 (ZY 3-2)",
        "group": "resource",
        "lat": 63.380766801544894,
        "lon": -110.9703713437014,
        "alt_km": 503.69810192568093,
        "timestamp": "2025-12-05T16:54:14.327116+00:00",
        "meta_object_name": "ZIYUAN 3-2 (ZY 3-2)",
        "meta_object_id": "2016-033A",
        "meta_epoch": "2025-12-05T06:55:31.740384",
        "meta_mean_motion": 15.21339807,
        "meta_eccentricity": 0.00124169,
        "meta_inclination": 97.4058,
        "meta_ra_of_asc_node": 53.5786,
        "meta_arg_of_pericenter": 278.1825,
        "meta_mean_anomaly": 81.8002,
        "meta_ephemeris_type": 0,
        "meta_classification_type": "U",
        "meta_norad_cat_id": 41556,
        "meta_element_set_no": 999,
        "meta_rev_at_epoch": 52850,
        "meta_bstar": 0.00061331589,
        "meta_mean_motion_dot": 0.00013708,
        "meta_mean_motion_ddot": 0,
        "tle_line1": "1 41556U 16033A   25339.28856181  .00013708  00000+0  61332-3 0  9991",
        "tle_line2": "2 41556  97.4058  53.5786 0012416 278.1825  81.8002 15.21339807528505"
      },
      "geometry": {
        "type": "Point",
        "coordinates": [
          -110.9703713437014,
          63.380766801544894
        ]
      }
    },
    {
      "type": "Feature",
      "properties": {
        "norad_id": 41599,
        "name": "CARTOSAT-2C",
        "group": "resource",
        "lat": 64.13244542372527,
        "lon": -127.25524779382287,
        "alt_km": 495.3487315788989,
        "timestamp": "2025-12-05T16:54:14.327125+00:00",
        "meta_object_name": "CARTOSAT-2C",
        "meta_object_id": "2016-040A",
        "meta_epoch": "2025-12-05T06:54:59.584896",
        "meta_mean_motion": 15.19187793,
        "meta_eccentricity": 0.00110627,
        "meta_inclination": 97.4779,
        "meta_ra_of_asc_node": 36.6151,
        "meta_arg_of_pericenter": 87.4558,
        "meta_mean_anomaly": 272.7943,
        "meta_ephemeris_type": 0,
        "meta_classification_type": "U",
        "meta_norad_cat_id": 41599,
        "meta_element_set_no": 999,
        "meta_rev_at_epoch": 52427,
        "meta_bstar": 0.0006809206,
        "meta_mean_motion_dot": 0.00014296,
        "meta_mean_motion_ddot": 0,
        "tle_line1": "1 41599U 16040A   25339.28818964  .00014296  00000+0  68092-3 0  9996",
        "tle_line2": "2 41599  97.4779  36.6151 0011062  87.4558 272.7943 15.19187793524277"
      },
      "geometry": {
        "type": "Point",
        "coordinates": [
          -127.25524779382287,
          64.13244542372527
        ]
      }
    },
    {
      "type": "Feature",
      "properties": {
        "norad_id": 41601,
        "name": "SKYSAT-C1",
        "group": "resource",
        "lat": -15.109676135417915,
        "lon": -164.78053006703195,
        "alt_km": 475.562715997331,
        "timestamp": "2025-12-05T16:54:14.327134+00:00",
        "meta_object_name": "SKYSAT-C1",
        "meta_object_id": "2016-040C",
        "meta_epoch": "2025-12-05T01:57:01.804032",
        "meta_mean_motion": 15.32381206,
        "meta_eccentricity": 0.00031577,
        "meta_inclination": 96.983,
        "meta_ra_of_asc_node": 16.5281,
        "meta_arg_of_pericenter": 34.7791,
        "meta_mean_anomaly": 325.3658,
        "meta_ephemeris_type": 0,
        "meta_classification_type": "U",
        "meta_norad_cat_id": 41601,
        "meta_element_set_no": 999,
        "meta_rev_at_epoch": 52810,
        "meta_bstar": 0.00055181543,
        "meta_mean_motion_dot": 0.00017202,
        "meta_mean_motion_ddot": 0,
        "tle_line1": "1 41601U 16040C   25339.08127088  .00017202  00000+0  55182-3 0  9994",
        "tle_line2": "2 41601  96.9830  16.5281 0003157  34.7791 325.3658 15.32381206528108"
      },
      "geometry": {
        "type": "Point",
        "coordinates": [
          -164.78053006703195,
          -15.109676135417915
        ]
      }
    },
    {
      "type": "Feature",
      "properties": {
        "norad_id": 41603,
        "name": "LAPAN-A3",
        "group": "resource",
        "lat": 3.493023843906748,
        "lon": -22.92138293271714,
        "alt_km": 466.83987752730445,
        "timestamp": "2025-12-05T16:54:14.327144+00:00",
        "meta_object_name": "LAPAN-A3",
        "meta_object_id": "2016-040E",
        "meta_epoch": "2025-12-05T07:28:47.360064",
        "meta_mean_motion": 15.31461931,
        "meta_eccentricity": 0.00105869,
        "meta_inclination": 97.142,
        "meta_ra_of_asc_node": 337.1388,
        "meta_arg_of_pericenter": 1.48,
        "meta_mean_anomaly": 358.6472,
        "meta_ephemeris_type": 0,
        "meta_classification_type": "U",
        "meta_norad_cat_id": 41603,
        "meta_element_set_no": 999,
        "meta_rev_at_epoch": 52512,
        "meta_bstar": 0.00023653693,
        "meta_mean_motion_dot": 7.124e-05,
        "meta_mean_motion_ddot": 0,
        "tle_line1": "1 41603U 16040E   25339.31165926  .00007124  00000+0  23654-3 0  9996",
        "tle_line2": "2 41603  97.1420 337.1388 0010586   1.4800 358.6472 15.31461931525129"
      },
      "geometry": {
        "type": "Point",
        "coordinates": [
          -22.92138293271714,
          3.493023843906748
        ]
      }
    },
    {
      "type": "Feature",
      "properties": {
        "norad_id": 41604,
        "name": "BIROS",
        "group": "resource",
        "lat": -12.522503812337288,
        "lon": -170.7086422710005,
        "alt_km": 313.97058567892964,
        "timestamp": "2025-12-05T16:54:14.327153+00:00",
        "meta_object_name": "BIROS",
        "meta_object_id": "2016-040F",
        "meta_epoch": "2025-12-05T00:57:33.792480",
        "meta_mean_motion": 15.86576888,
        "meta_eccentricity": 0.00029436,
        "meta_inclination": 97.0688,
        "meta_ra_of_asc_node": 10.1826,
        "meta_arg_of_pericenter": 166.0807,
        "meta_mean_anomaly": 194.0547,
        "meta_ephemeris_type": 0,
        "meta_classification_type": "U",
        "meta_norad_cat_id": 41604,
        "meta_element_set_no": 999,
        "meta_rev_at_epoch": 52750,
        "meta_bstar": 0.00082592991,
        "meta_mean_motion_dot": 0.00212324,
        "meta_mean_motion_ddot": 0,
        "tle_line1": "1 41604U 16040F   25339.03997445  .00212324  00000+0  82593-3 0  9992",
        "tle_line2": "2 41604  97.0688  10.1826 0002943 166.0807 194.0547 15.86576888527500"
      },
      "geometry": {
        "type": "Point",
        "coordinates": [
          -170.7086422710005,
          -12.522503812337288
        ]
      }
    },
    {
      "type": "Feature",
      "properties": {
        "norad_id": 41727,
        "name": "GAOFEN-3",
        "group": "resource",
        "lat": -57.6380541484238,
        "lon": 151.90695882620125,
        "alt_km": 759.3725760118932,
        "timestamp": "2025-12-05T16:54:14.327161+00:00",
        "meta_object_name": "GAOFEN-3",
        "meta_object_id": "2016-049A",
        "meta_epoch": "2025-12-05T07:28:32.902752",
        "meta_mean_motion": 14.42210162,
        "meta_eccentricity": 0.00015623,
        "meta_inclination": 98.404,
        "meta_ra_of_asc_node": 345.0111,
        "meta_arg_of_pericenter": 71.3774,
        "meta_mean_anomaly": 288.7586,
        "meta_ephemeris_type": 0,
        "meta_classification_type": "U",
        "meta_norad_cat_id": 41727,
        "meta_element_set_no": 999,
        "meta_rev_at_epoch": 49070,
        "meta_bstar": 2.179539e-06,
        "meta_mean_motion_dot": -3.6e-07,
        "meta_mean_motion_ddot": 0,
        "tle_line1": "1 41727U 16049A   25339.31149193 -.00000036  00000+0  21795-5 0  9992",
        "tle_line2": "2 41727  98.4040 345.0111 0001562  71.3774 288.7586 14.42210162490703"
      },
      "geometry": {
        "type": "Point",
        "coordinates": [
          151.90695882620125,
          -57.6380541484238
        ]
      }
    },
    {
      "type": "Feature",
      "properties": {
        "norad_id": 41771,
        "name": "SKYSAT-C4",
        "group": "resource",
        "lat": -66.50721379414412,
        "lon": 168.96799459892057,
        "alt_km": 447.93625331252224,
        "timestamp": "2025-12-05T16:54:14.327175+00:00",
        "meta_object_name": "SKYSAT-C4",
        "meta_object_id": "2016-058B",
        "meta_epoch": "2025-12-05T01:48:59.358528",
        "meta_mean_motion": 15.41925723,
        "meta_eccentricity": 8.27e-05,
        "meta_inclination": 96.9374,
        "meta_ra_of_asc_node": 4.6381,
        "meta_arg_of_pericenter": 125.4241,
        "meta_mean_anomaly": 234.7085,
        "meta_ephemeris_type": 0,
        "meta_classification_type": "U",
        "meta_norad_cat_id": 41771,
        "meta_element_set_no": 999,
        "meta_rev_at_epoch": 51549,
        "meta_bstar": 0.00060426352,
        "meta_mean_motion_dot": 0.00025664,
        "meta_mean_motion_ddot": 0,
        "tle_line1": "1 41771U 16058B   25339.07568702  .00025664  00000+0  60426-3 0  9990",
        "tle_line2": "2 41771  96.9374   4.6381 0000827 125.4241 234.7085 15.41925723515490"
      },
      "geometry": {
        "type": "Point",
        "coordinates": [
          168.96799459892057,
          -66.50721379414412
        ]
      }
    }
  ]
}